0 CZ-3A DEB
1 35555U 07003P   13288.36443995  .00017194  00000-0  37411-1 0  2035
2 35555 026.4019 305.7289 7213007 046.7201 354.7047 02.29601743 43327
0 CZ-3A DEB
1 35555U 07003P   13293.15272222  .00020859  00000-0  41835-1 0  2049
2 35555 026.3901 303.9659 7213917 049.5759 354.6012 02.29824310 43436
